SL-3 R/B                
1 19046U 88032B   19096.95371423  .00000049  00000-0  81603-5 0  9996
2 19046  97.4464 131.3777 0034891 252.4994 107.2417 15.02563195671266
SL-16 R/B               
1 19120U 88039B   19097.04858689 -.00000168  00000-0 -57189-4 0  9996
2 19120  71.0175  12.7625 0024259 258.9358 100.9039 14.19193560599869
COSMOS 1953             
1 19210U 88050A   19096.87976237  .00000009  00000-0 -14147-5 0  9990
2 19210  82.5144 114.4929 0013886 166.8611 193.2981 15.05744769655810
SL-8 R/B                
1 19257U 88053B   19096.96123262  .00000084  00000-0  36726-4 0  9994
2 19257  74.0473  85.3798 0020434 176.5561 247.5551 14.37433143613142
COSMOS 1975             
1 19573U 88093A   19096.93671370  .00000719  00000-0  49045-4 0  9997
2 19573  82.5197  67.8750 0013408 209.7277 150.3190 15.04653903637711
SL-14 R/B               
1 19574U 88093B   19096.90038035  .00000063  00000-0  46395-5 0  9998
2 19574  82.5309 249.1682 0023131 104.0203   9.1789 14.83293397647096
SL-16 R/B               
1 19650U 88102B   19097.07009851 -.00000226  00000-0 -90416-4 0  9992
2 19650  70.9995  69.6256 0016758 261.5398  98.3826 14.15780229569259
INTERCOSMOS 24          
1 20261U 89080A   19096.72847161  .00000125  00000-0  31507-4 0  9995
2 20261  82.6002 303.5241 1203375  17.9149 346.0783 12.56057906349043
SL-14 R/B               
1 20262U 89080C   19096.85970989  .00000047  00000-0  94778-5 0  9998
2 20262  82.5979 354.2138 1236880 194.8132 161.3411 12.48913296344368
DELTA 1 R/B             
1 20323U 89089B   19096.62189920  .00000002  00000-0  94853-5 0  9992
2 20323  97.0757 308.4212 0072054 168.3144 191.9746 14.48295562529494
DELTA 2 R/B(1)          
1 20453U 90008B   19096.89807638  .00000603  00000-0  35998-4 0  9992
2 20453  35.6270 314.8794 0284458 254.5700 102.3426 14.84802108546110
COSMOS 2058             
1 20465U 90010A   19096.77208419  .00000187  00000-0  13608-4 0  9998
2 20465  82.4900 334.4615 0014169 232.9350 127.0578 14.97851128583915
SL-14 R/B               
1 20466U 90010B   19096.63862698  .00000065  00000-0  52911-5 0  9995
2 20466  82.5002 116.4927 0019922 339.9577  20.0852 14.81350962574971
SL-14 R/B               
1 20511U 90018B   19096.96934361  .00000079  00000-0  72915-5 0  9998
2 20511  82.5232  60.5952 0018950 110.8950 308.8394 14.80007827548400
HST                     
1 20580U 90037B   19097.08395825  .00000527  00000-0  21251-4 0  9999
2 20580  28.4703 332.0464 0002835  65.0440  67.0424 15.09200118389910
SL-16 R/B               
1 20625U 90046B   19096.73937698 -.00000210  00000-0 -84387-4 0  9990
2 20625  71.0001 206.9338 0014757 196.7286 163.3352 14.14643803490965
COSMOS 2084             
1 20663U 90055A   19096.60553838  .00000059  00000-0  23750-4 0  9994
2 20663  62.7939 190.0223 0086799 158.5862 201.8900 14.91961119558028
SL-6 R/B(2)             
1 20666U 90055D   19096.53278424 -.00000053  00000-0  13173-4 0  9997
2 20666  62.7848 107.6360 0052513 187.5518 172.4791 14.92229399559944
SL-8 R/B                
1 20775U 90078B   19096.94734235  .00002507  00000-0  12008-3 0  9995
2 20775  82.9288 227.0442 0579619 108.7694 257.7277 14.33158928443049
SL-8 R/B                
1 21088U 91006B   19097.01282733  .00000102  00000-0  87445-4 0  9992
2 21088  82.9407 250.4354 0021237 276.0285 223.6929 13.77117565416275
OKEAN-3                 
1 21397U 91039A   19096.89284037  .00000271  00000-0  23675-4 0  9997
2 21397  82.5224 232.5486 0017707 189.0341 171.0564 14.92783740486989
COSMOS 2151             
1 21422U 91042A   19096.74445008  .00000144  00000-0  11708-4 0  9994
2 21422  82.5016 339.6521 0012688 253.6616 106.3209 14.92033936506695
SL-14 R/B               
1 21423U 91042B   19097.03277718  .00000072  00000-0  65916-5 0  9990
2 21423  82.4935  65.7073 0016108 250.7745 109.1725 14.79759001500013
ERS-1                   
1 21574U 91050A   19096.87479611  .00000034  00000-0  25764-4 0  9997
2 21574  98.5428  46.6045 0033483 148.2938 212.0275 14.37688310452223
ARIANE 40 R/B           
1 21610U 91050F   19096.79358126 -.00000005  00000-0  12345-4 0  9996
2 21610  98.5152 164.0720 0004291 123.3573 345.3140 14.40866341454675
INTERCOSMOS 25          
1 21819U 91086A   19096.88793132 -.00000219  00000-0 -51843-4 0  9990
2 21819  82.5898  28.2117 1518548 124.3693 251.0549 12.04944583191584
SL-14 R/B               
1 21820U 91086B   19097.04938595  .00000128  00000-0  23978-4 0  9990
2 21820  82.5570  89.7987 1575631 338.5113  15.6262 11.93441888185375
SL-8 R/B                
1 21876U 92008B   19096.87823737  .00000028  00000-0  13859-4 0  9993
2 21876  82.9295 347.6528 0034841 357.7825  51.4655 13.75637538361715
SL-8 R/B                
1 21938U 92020B   19096.93322035  .00000074  00000-0  60719-4 0  9996
2 21938  82.9308 231.3833 0029985 152.2727 325.3091 13.75275776353539
SL-16 R/B               
1 22220U 92076B   19096.45158358  .00000173  00000-0  11108-3 0  9991
2 22220  70.9983 113.6008 0013402 340.1121 121.2978 14.16442863363659
SL-16 R/B               
1 22285U 92093B   19096.93778640  .00000207  00000-0  13137-3 0  9998
2 22285  71.0203 270.3612 0005504 223.4114 136.6576 14.15033328355441
COSMOS 2228             
1 22286U 92094A   19096.89933611  .00000176  00000-0  16348-4 0  9999
2 22286  82.5171 112.7643 0022852  94.1782 266.2047 14.88029342399379
SL-16 R/B               
1 22566U 93016B   19097.08205950 -.00000163  00000-0 -59742-4 0  9998
2 22566  71.0049 123.8432 0011864 220.8921 139.1313 14.14959664344473
COSMOS 2242             
1 22626U 93024A   19096.70078634  .00000184  00000-0  17299-4 0  9991
2 22626  82.5208 140.9010 0020651  94.7490 265.6086 14.87888777404069
SL-16 R/B               
1 22803U 93059B   19096.95254125  .00000105  00000-0  76356-4 0  9996
2 22803  70.9884 301.2395 0015142 104.7835 255.4967 14.16806324321332
ARIANE 40 R/B           
1 22830U 93061H   19096.94284543  .00000005  00000-0  19139-4 0  9990
2 22830  98.8240 135.5360 0011454 158.1014 202.0660 14.31432780332238
COSMOS 2278             
1 23087U 94023A   19096.92528146  .00000109  00000-0  82243-4 0  9993
2 23087  71.0548  62.1534 0011053 285.8828  74.1075 14.13789673287357
SL-16 R/B               
1 23088U 94023B   19097.07018151  .00000229  00000-0  14380-3 0  9990
2 23088  71.0011 339.1490 0004061 209.6419 150.4474 14.14672407288722
SL-16 R/B               
1 23343U 94074B   19096.75524510  .00000018  00000-0  99444-5 0  9997
2 23343  98.0617 146.9030 0008166 114.7057 357.7292 14.76771324314024
SL-16 R/B               
1 23405U 94077B   19096.89536478 -.00000172  00000-0 -63985-4 0  9993
2 23405  70.9811 270.4562 0001838 345.8365  14.2705 14.15206679258456
ERS-2                   
1 23560U 95021A   19096.94240009  .00001266  00000-0  58611-4 0  9996
2 23560  98.5017 187.3027 0002871 204.0685 156.0414 15.22406812275533
ARIANE 40+ R/B          
1 23561U 95021B   19096.71322470  .00000010  00000-0  18527-4 0  9993
2 23561  98.7735 122.8787 0008067 109.1334   4.6471 14.37914663255665
SL-16 R/B               
1 23705U 95058B   19097.04085615 -.00000299  00000-0 -12955-3 0  9996
2 23705  71.0193  86.6990 0012119   2.6133 357.5051 14.15123506210396
SL-16 R/B               
1 24298U 96051B   19097.06146993  .00000033  00000-0  44342-4 0  9997
2 24298  70.8232 112.8913 0018811 276.8615  83.0364 14.12393981164857
ORBVIEW 2 (SEASTAR)     
1 24883U 97037A   19097.04693052  .00000035  00000-0  28750-4 0  9990
2 24883  98.5758 208.4001 0001636 347.3664  12.7479 14.33497290146309
SL-16 R/B               
1 25400U 98043G   19096.91791788 -.00000022  00000-0  89504-5 0  9996
2 25400  98.5669  36.9864 0010126 164.8637 195.2847 14.25439009 78689
SL-16 R/B               
1 25407U 98045B   19097.06873380 -.00000248  00000-0 -10202-3 0  9999
2 25407  71.0084  96.7895 0010129 278.9293  81.0683 14.15785060 69443
ISS (ZARYA)             
1 25544U 98067A   19097.68460013  .00003781  00000-0  68079-4 0  9997
2 25544  51.6444 351.6923 0002206 150.8084 309.6667 15.52501872164308
SL-8 R/B                
1 25723U 99022C   19096.81398406  .00011205  00000-0  12001-3 0  9991
2 25723  48.4137 229.0552 0007650 341.8757  18.1918 15.64245846108952
CZ-4B R/B               
1 25732U 99025C   19096.96110208 -.00000026  00000-0  94563-5 0  9997
2 25732  98.9823 116.6839 0037610  18.2852  39.2267 14.17661423 29833
OKEAN-O                 
1 25860U 99039A   19096.96867530  .00000033  00000-0  12423-4 0  9992
2 25860  98.2280 102.9060 0001386 114.7261 245.4092 14.76597726 60950
SL-16 R/B               
1 25861U 99039B   19096.94985980  .00000014  00000-0  93427-5 0  9994
2 25861  98.1853  86.0612 0016834 120.6775 292.2809 14.78523415 62977
TERRA                   
1 25994U 99068A   19097.22644780  .00000157  00000-0  44907-4 0  9991
2 25994  98.2076 172.8243 0001281 105.5989 254.5396 14.57112752 26646
ENVISAT                 
1 27386U 02009A   19097.09342597 -.00000014  00000-0  89531-5 0  9999
2 27386  98.1561 121.8081 0001442  94.1459 331.3792 14.37945062895766
IDEFIX & ARIANE 42P R/B 
1 27422U 02021B   19096.92054438 -.00000028  00000-0  49438-5 0  9996
2 27422  98.2934  72.6660 0013516  85.3172 274.9554 14.29269376882668
AQUA                    
1 27424U 02022A   19096.91659943  .00000118  00000-0  36126-4 0  9998
2 27424  98.2050  38.8817 0000613 283.8918 149.0132 14.57114796900159
CZ-4B R/B               
1 27432U 02024C   19096.92320253 -.00000036  00000-0  55256-5 0  9995
2 27432  99.0663  87.1880 0050039 331.9977  90.2749 14.14077431871819
MIDORI II (ADEOS-II)    
1 27597U 02056A   19096.85435688  .00000032  00000-0  30180-4 0  9996
2 27597  98.4648  51.9027 0001265 131.5358 228.5931 14.27391655849380
H-2A R/B                
1 27601U 02056E   19097.09790038  .00000039  00000-0  28993-4 0  9998
2 27601  98.2846 148.9119 0073110 138.5565 282.3145 14.31886203852100
